CTC1_L_00379016-03
1 65319U 26779HE  26037.47805556  .00000000  00000+0  00000-0 0  9992
2 65319  90.0000 180.0000 0000000   0.0000   0.0000 13.16009617    19
CTC1_L_00379016-04
1 65320U 24617VO  26037.47805556  .00000000  00000+0  00000-0 0  9993
2 65320  90.0000 180.0000 0000000   0.0000  90.0000 13.16009617    10
CTC1_L_00379017-01
1 65321U 25024XN  26037.47805556  .00000000  00000+0  00000-0 0  9997
2 65321  90.0000 192.0000 0000000   0.0000 192.0000 13.16009617    17
CTC1_L_00379017-02
1 65322U 25835C   26037.47805556  .00000000  00000+0  00000-0 0  9998
2 65322  90.0000 192.0000 0000000   0.0000 282.0000 13.16009617    18
CTC1_L_00379017-03
1 65323U 22602FN  26037.47805556  .00000000  00000+0  00000-0 0  9998
2 65323  90.0000 192.0000 0000000   0.0000  12.0000 13.16009617    10
CTC1_L_00379017-04
1 65324U 22839PT  26037.47805556  .00000000  00000+0  00000-0 0  9991
2 65324  90.0000 192.0000 0000000   0.0000 102.0000 13.16009617    11
CTC1_L_00379018-01
1 65325U 26597BE  26037.47805556  .00000000  00000+0  00000-0 0  9997
2 65325  90.0000 204.0000 0000000   0.0000 204.0000 13.16009617    19
CTC1_L_00379018-02
1 65326U 26080JZ  26037.47805556  .00000000  00000+0  00000-0 0  9995
2 65326  90.0000 204.0000 0000000   0.0000 294.0000 13.16009617    19
CTC1_L_00379018-03
1 65327U 26905BT  26037.47805556  .00000000  00000+0  00000-0 0  9992
2 65327  90.0000 204.0000 0000000   0.0000  24.0000 13.16009617    11
CTC1_L_00379018-04
1 65328U 23879DR  26037.47805556  .00000000  00000+0  00000-0 0  9990
2 65328  90.0000 204.0000 0000000   0.0000 114.0000 13.16009617    12
CTC1_L_00379019-01
1 65329U 24680MC  26037.47805556  .00000000  00000+0  00000-0 0  9992
2 65329  90.0000 216.0000 0000000   0.0000 216.0000 13.16009617    19
CTC1_L_00379019-02
1 65330U 24389FA  26037.47805556  .00000000  00000+0  00000-0 0  9990
2 65330  90.0000 216.0000 0000000   0.0000 306.0000 13.16009617    11
CTC1_L_00379019-03
1 65331U 26423DZ  26037.47805556  .00000000  00000+0  00000-0 0  9992
2 65331  90.0000 216.0000 0000000   0.0000  36.0000 13.16009617    12
CTC1_L_00379019-04
1 65332U 23674ES  26037.47805556  .00000000  00000+0  00000-0 0  9998
2 65332  90.0000 216.0000 0000000   0.0000 126.0000 13.16009617    13
CTC1_L_00379020-01
1 65333U 22565AJ  26037.47805556  .00000000  00000+0  00000-0 0  9997
2 65333  90.0000 228.0000 0000000   0.0000 228.0000 13.16009617    10
CTC1_L_00379020-02
1 65334U 25213LF  26037.47805556  .00000000  00000+0  00000-0 0  9991
2 65334  90.0000 228.0000 0000000   0.0000 318.0000 13.16009617    11
CTC1_L_00379020-03
1 65335U 25990ZO  26037.47805556  .00000000  00000+0  00000-0 0  9994
2 65335  90.0000 228.0000 0000000   0.0000  48.0000 13.16009617    12
CTC1_L_00379020-04
1 65336U 25139UD  26037.47805556  .00000000  00000+0  00000-0 0  9990
2 65336  90.0000 228.0000 0000000   0.0000 138.0000 13.16009617    13
CTC1_L_00379021-01
1 65337U 22380TD  26037.47805556  .00000000  00000+0  00000-0 0  9996
2 65337  90.0000 240.0000 0000000   0.0000 240.0000 13.16009617    12
CTC1_L_00379021-02
1 65338U 22395MZ  26037.47805556  .00000000  00000+0  00000-0 0  9993
2 65338  90.0000 240.0000 0000000   0.0000 330.0000 13.16009617    13
CTC1_L_00379021-03
1 65339U 25448FE  26037.47805556  .00000000  00000+0  00000-0 0  9996
2 65339  90.0000 240.0000 0000000   0.0000  60.0000 13.16009617    14
CTC1_L_00379021-04
1 65340U 22044PK  26037.47805556  .00000000  00000+0  00000-0 0  9997
2 65340  90.0000 240.0000 0000000   0.0000 150.0000 13.16009617    16
CTC1_L_00379022-01
1 65341U 23936DJ  26037.47805556  .00000000  00000+0  00000-0 0  9999
2 65341  90.0000 252.0000 0000000   0.0000 252.0000 13.16009617    13
CTC1_L_00379022-02
1 65342U 25231PD  26037.47805556  .00000000  00000+0  00000-0 0  9990
2 65342  90.0000 252.0000 0000000   0.0000 342.0000 13.16009617    14
CTC1_L_00379022-03
1 65343U 23706FE  26037.47805556  .00000000  00000+0  00000-0 0  9996
2 65343  90.0000 252.0000 0000000   0.0000  72.0000 13.16009617    15
CTC1_L_00379022-04
1 65344U 22433ER  26037.47805556  .00000000  00000+0  00000-0 0  9993
2 65344  90.0000 252.0000 0000000   0.0000 162.0000 13.16009617    16
CTC1_L_00379023-01
1 65345U 22062BD  26037.47805556  .00000000  00000+0  00000-0 0  9992
2 65345  90.0000 264.0000 0000000   0.0000 264.0000 13.16009617    13
CTC1_L_00379023-02
1 65346U 24335MX  26037.47805556  .00000000  00000+0  00000-0 0  9998
2 65346  90.0000 264.0000 0000000   0.0000 354.0000 13.16009617    14
CTC1_L_00379023-03
1 65347U 25559CP  26037.47805556  .00000000  00000+0  00000-0 0  9998
2 65347  90.0000 264.0000 0000000   0.0000  84.0000 13.16009617    15
CTC1_L_00379023-04
1 65348U 24360YN  26037.47805556  .00000000  00000+0  00000-0 0  9998
2 65348  90.0000 264.0000 0000000   0.0000 174.0000 13.16009617    16
CTC1_L_00379024-01
1 65349U 26198PV  26037.47805556  .00000000  00000+0  00000-0 0  9990
2 65349  90.0000 276.0000 0000000   0.0000 276.0000 13.16009617    13
CTC1_L_00379024-02
1 65350U 23902HB  26037.47805556  .00000000  00000+0  00000-0 0  9992
2 65350  90.0000 276.0000 0000000   0.0000   6.0000 13.16009617    16
CTC1_L_00379024-03
1 65351U 26355HO  26037.47805556  .00000000  00000+0  00000-0 0  9998
2 65351  90.0000 276.0000 0000000   0.0000  96.0000 13.16009617    16
CTC1_L_00379024-04
1 65352U 26023YG  26037.47805556  .00000000  00000+0  00000-0 0  9991
2 65352  90.0000 276.0000 0000000   0.0000 186.0000 13.16009617    17
CTC1_L_00379025-01
1 65353U 23497TN  26037.47805556  .00000000  00000+0  00000-0 0  9994
2 65353  90.0000 288.0000 0000000   0.0000 288.0000 13.16009617    14
CTC1_L_00379025-02
1 65354U 24128GR  26037.47805556  .00000000  00000+0  00000-0 0  9997
2 65354  90.0000 288.0000 0000000   0.0000  18.0000 13.16009617    16
CTC1_L_00379025-03
1 65355U 25468WU  26037.47805556  .00000000  00000+0  00000-0 0  9996
2 65355  90.0000 288.0000 0000000   0.0000 108.0000 13.16009617    17
CTC1_L_00379025-04
1 65356U 24883RP  26037.47805556  .00000000  00000+0  00000-0 0  9997
2 65356  90.0000 288.0000 0000000   0.0000 198.0000 13.16009617    17
CTC1_L_00379026-01
1 65357U 23852IF  26037.47805556  .00000000  00000+0  00000-0 0  9993
2 65357  90.0000 300.0000 0000000   0.0000 300.0000 13.16009617    18
CTC1_L_00379026-02
1 65358U 24710SS  26037.47805556  .00000000  00000+0  00000-0 0  9998
2 65358  90.0000 300.0000 0000000   0.0000  30.0000 13.16009617    19
CTC1_L_00379026-03
1 65359U 24211MK  26037.47805556  .00000000  00000+0  00000-0 0  9995
2 65359  90.0000 300.0000 0000000   0.0000 120.0000 13.16009617    10
CTC1_L_00379026-04
1 65360U 23480SB  26037.47805556  .00000000  00000+0  00000-0 0  9994
2 65360  90.0000 300.0000 0000000   0.0000 210.0000 13.16009617    12
CTC1_L_00379027-01
1 65361U 25070RM  26037.47805556  .00000000  00000+0  00000-0 0  9992
2 65361  90.0000 312.0000 0000000   0.0000 312.0000 13.16009617    19
CTC1_L_00379027-02
1 65362U 23316PO  26037.47805556  .00000000  00000+0  00000-0 0  9994
2 65362  90.0000 312.0000 0000000   0.0000  42.0000 13.16009617    10
CTC1_L_00379027-03
1 65363U 26137AP  26037.47805556  .00000000  00000+0  00000-0 0  9999
2 65363  90.0000 312.0000 0000000   0.0000 132.0000 13.16009617    11
CTC1_L_00379027-04
1 65364U 25949BL  26037.47805556  .00000000  00000+0  00000-0 0  9990
2 65364  90.0000 312.0000 0000000   0.0000 222.0000 13.16009617    12
CTC1_L_00379028-01
1 65365U 22324UI  26037.47805556  .00000000  00000+0  00000-0 0  9995
2 65365  90.0000 324.0000 0000000   0.0000 324.0000 13.16009617    19
CTC1_L_00379028-02
1 65366U 22101UP  26037.47805556  .00000000  00000+0  00000-0 0  9999
2 65366  90.0000 324.0000 0000000   0.0000  54.0000 13.16009617    10
CTC1_L_00379028-03
1 65367U 26788DT  26037.47805556  .00000000  00000+0  00000-0 0  9995
2 65367  90.0000 324.0000 0000000   0.0000 144.0000 13.16009617    11
CTC1_L_00379028-04
1 65368U 22148GL  26037.47805556  .00000000  00000+0  00000-0 0  9992
2 65368  90.0000 324.0000 0000000   0.0000 234.0000 13.16009617    12
CTC1_L_00379029-01
1 65369U 25196KF  26037.47805556  .00000000  00000+0  00000-0 0  9999
2 65369  90.0000 336.0000 0000000   0.0000 336.0000 13.16009617    19
CTC1_L_00379029-02
1 65370U 26489XN  26037.47805556  .00000000  00000+0  00000-0 0  9997
2 65370  90.0000 336.0000 0000000   0.0000  66.0000 13.16009617    11
CTC1_L_00379029-03
1 65371U 24816UL  26037.47805556  .00000000  00000+0  00000-0 0  9990
2 65371  90.0000 336.0000 0000000   0.0000 156.0000 13.16009617    12
CTC1_L_00379029-04
1 65372U 26838CA  26037.47805556  .00000000  00000+0  00000-0 0  9997
2 65372  90.0000 336.0000 0000000   0.0000 246.0000 13.16009617    13
CTC1_L_00379030-01
1 65373U 23499ST  26037.47805556  .00000000  00000+0  00000-0 0  9998
2 65373  90.0000 348.0000 0000000   0.0000 348.0000 13.16009617    10
CTC1_L_00379030-02
1 65374U 24359FE  26037.47805556  .00000000  00000+0  00000-0 0  9995
2 65374  90.0000 348.0000 0000000   0.0000  78.0000 13.16009617    11
CTC1_L_00379030-03
1 65375U 26886NB  26037.47805556  .00000000  00000+0  00000-0 0  9993
2 65375  90.0000 348.0000 0000000   0.0000 168.0000 13.16009617    12
CTC1_L_00379030-04
1 65376U 24990GO  26037.47805556  .00000000  00000+0  00000-0 0  9998
2 65376  90.0000 348.0000 0000000   0.0000 258.0000 13.16009617    13
